GLOBALSTAR M024         
1 25883U 99043A   24360.62472324  .00000003  00000+0  24168-2 0  9991
2 25883  52.0042  52.2390 0001988 162.2802 359.3786 11.10164189 95589
GLOBALSTAR M027         
1 25884U 99043B   24360.53110249 -.00000068  00000+0 -15799-3 0  9991
2 25884  52.0196 125.5110 0021937  72.9911 287.3284 11.04371175122052
GLOBALSTAR M054         
1 25885U 99043C   24360.51074593  .00000083  00000+0  39191-2 0  9997
2 25885  52.0149 282.0058 0005254 243.3859 287.3776 11.39212156 99252
GLOBALSTAR M053         
1 25886U 99043D   24360.50256567 -.00000057  00000+0  32975-3 0  9996
2 25886  51.9958 219.4823 0004058 127.8523 255.0416 11.27661910 99850
GLOBALSTAR M033         
1 25909U 99049C   24360.53788523  .00000016  00000+0  10328-2 0  9994
2 25909  51.9905 117.3363 0011965 263.3211  96.6274 12.20294244514543
GLOBALSTAR M055         
1 25910U 99049D   24360.59844807 -.00000066  00000+0  24300-3 0  9992
2 25910  52.0003 136.3640 0008116 128.5125 231.6456 12.29417652146931
